*******************************************************************************
JPL/HORIZONS                410 Chloris (A896 AC)          2020-Jun-22 08:59:24
Rec #:     410 (+COV) Soln.date: 2020-Feb-22_15:26:44   # obs: 2518 (1906-2019)
 
IAU76/J2000 helio. ecliptic osc. elements (au, days, deg., period=Julian yrs):
 
  EPOCH=  2454391.5 ! 2007-Oct-18.00 (TDB)         Residual RMS= .29302
   EC= .2365189406885435   QR= 2.083813040375064   TP= 2453730.5010576821
   OM= 97.20530615186114   W=  172.0843044144302   IN= 10.92265536712842
   A= 2.729357873336564    MA= 144.4821222851321   ADIST= 3.374902706298064
   PER= 4.50919            N= .218581467           ANGMOM= .027612848
   DAN= 3.36497            DDN= 2.08762            L= 269.4312429
   B= 1.4952974            MOID= 1.06738997        TP= 2005-Dec-26.0010576821
 
Asteroid physical parameters (km, seconds, rotational period in hours):
   GM= n.a.                RAD= 59.4645            ROTPER= 32.5
   H= 8.3                  G= .150                 B-V= .748
                           ALBEDO= .043            STYP= Ch
 
ASTEROID comments: 
1: soln ref.= JPL#50, OCC=0
2: source=ORB
*******************************************************************************
 
 
*******************************************************************************
Ephemeris / WWW_USER Mon Jun 22 08:59:24 2020 Pasadena, USA      / Horizons
*******************************************************************************
Target body name: 410 Chloris (A896 AC)           {source: JPL#50}
Center body name: Solar System Barycenter (0)     {source: DE431}
Center-site name: BODY CENTER
*******************************************************************************
Start time      : A.D. 1969-Jun-28 00:00:00.0000 TDB
Stop  time      : A.D. 2071-May-04 00:00:00.0000 TDB
Step-size       : 7200 minutes
*******************************************************************************
Center geodetic : 0.00000000,0.00000000,0.0000000 {E-lon(deg),Lat(deg),Alt(km)}
Center cylindric: 0.00000000,0.00000000,0.0000000 {E-lon(deg),Dxy(km),Dz(km)}
Center radii    : (undefined)                                                  
Small perturbers: Yes                             {source: SB431-N16}
Output units    : AU-D
Output type     : GEOMETRIC cartesian states
Output format   : 2 (position and velocity)
Reference frame : Ecliptic of J2000.0
*******************************************************************************
Initial IAU76/J2000 heliocentric ecliptic osculating elements (au, days, deg.):
  EPOCH=  2454391.5 ! 2007-Oct-18.00 (TDB)         Residual RMS= .29302        
   EC= .2365189406885435   QR= 2.083813040375064   TP= 2453730.5010576821      
   OM= 97.20530615186114   W=  172.0843044144302   IN= 10.92265536712842       
  Equivalent ICRF heliocentric equatorial cartesian coordinates (au, au/d):
   X= 1.291078073776319E+00  Y= 2.892355425432050E+00  Z= 9.050677304097615E-01
  VX=-7.161773547614975E-03 VY= 3.425028340988186E-03 VZ= 2.866435166178921E-03
Asteroid physical parameters (km, seconds, rotational period in hours):        
   GM= n.a.                RAD= 59.4645            ROTPER= 32.5                
   H= 8.3                  G= .150                 B-V= .748                   
                           ALBEDO= .043            STYP= Ch                    
*******************************************************************************
            JDTDB,            Calendar Date (TDB),        delta-T,                      X,                      Y,                      Z,                     VX,                     VY,                     VZ,
******************************************************************************************************************************************************************************************************************
$$SOE
2460000.500000000, A.D. 2023-Feb-25 00:00:00.0000,      69.185285, -2.576630795985957E+00,  2.706326297147892E-01,  4.876092290905867E-01,  1.501824022096266E-03, -1.070472456556702E-02, -3.865970818676575E-05,
2460005.500000000, A.D. 2023-Mar-02 00:00:00.0000,      69.185371, -2.568595982865261E+00,  2.170571410360404E-01,  4.873160652546459E-01,  1.712509472759876E-03, -1.072478711219025E-02, -7.870030186985762E-05,
2460010.500000000, A.D. 2023-Mar-07 00:00:00.0000,      69.185445, -2.559501652880476E+00,  1.633917069795860E-01,  4.868212852582212E-01,  1.925623784892541E-03, -1.074068053689948E-02, -1.193053562823576E-04,
2460015.500000000, A.D. 2023-Mar-12 00:00:00.0000,      69.185507, -2.549335770686707E+00,  1.096575080532943E-01,  4.861220797123512E-01,  2.141122515123277E-03, -1.075227044670146E-02, -1.604695730883970E-04,
2460020.500000000, A.D. 2023-Mar-17 00:00:00.0000,      69.185560, -2.538086536550101E+00,  5.587640309224426E-02,  4.852156677174466E-01,  2.358955736718229E-03, -1.075941991848274E-02, -2.021868295878647E-04,
2460025.500000000, A.D. 2023-Mar-22 00:00:00.0000,      69.185603, -2.525742415567597E+00,  2.070942359649478E-03,  4.840993022978509E-01,  2.579067463542114E-03, -1.076198918598531E-02, -2.444494881408726E-04,
2460030.500000000, A.D. 2023-Mar-27 00:00:00.0000,      69.185633, -2.512292165800107E+00, -5.173561757179269E-02,  4.827702790648415E-01,  2.801396645427426E-03, -1.075983569507368E-02, -2.872484165508057E-04,
2460035.500000000, A.D. 2023-Apr-01 00:00:00.0000,      69.185650, -2.497724864752733E+00, -1.055193030654369E-01,  4.812259400666629E-01,  3.025876210388988E-03, -1.075281521815367E-02, -3.305741387972905E-04,
2460040.500000000, A.D. 2023-Apr-06 00:00:00.0000,      69.185653, -2.482029942753500E+00, -1.592554145597949E-01,  4.794636773358434E-01,  3.252432110910908E-03, -1.074078156071360E-02, -3.744160188433849E-04,
2460045.500000000, A.D. 2023-Apr-11 00:00:00.0000,      69.185645, -2.465197217675029E+00, -2.129185165978994E-01,  4.774809396069397E-01,  3.480983352373205E-03, -1.072358660394162E-02, -4.187620153079661E-04,
2460050.500000000, A.D. 2023-Apr-16 00:00:00.0000,      69.185625, -2.447216930251123E+00, -2.664824289157184E-01,  4.752752393073507E-01,  3.711441729110485E-03, -1.070108059213218E-02, -4.635986891320026E-04,
2460055.500000000, A.D. 2023-Apr-21 00:00:00.0000,      69.185595, -2.428079780990612E+00, -3.199202189824522E-01,  4.728441596330522E-01,  3.943711478243486E-03, -1.067311242349288E-02, -5.089111624351301E-04,
2460060.500000000, A.D. 2023-Apr-26 00:00:00.0000,      69.185553, -2.407776968839785E+00, -3.732041960263836E-01,  4.701853618971398E-01,  4.177688929566206E-03, -1.063952995667226E-02, -5.546830548216275E-04,
2460065.500000000, A.D. 2023-May-01 00:00:00.0000,      69.185498, -2.386300231587520E+00, -4.263059066611172E-01,  4.672965932175931E-01,  4.413262158761042E-03, -1.060018034566934E-02, -6.008964126791601E-04,
2460070.500000000, A.D. 2023-May-06 00:00:00.0000,      69.185432, -2.363641887994772E+00, -4.791961322690046E-01,  4.641756945655598E-01,  4.650310644546322E-03, -1.055491040835517E-02, -6.475316360674282E-04,
2460075.500000000, A.D. 2023-May-11 00:00:00.0000,      69.185355, -2.339794881626160E+00, -5.318448883165505E-01,  4.608206091816763E-01,  4.888704931004504E-03, -1.050356703103297E-02, -6.945674047962590E-04,
2460080.500000000, A.D. 2023-May-16 00:00:00.0000,      69.185270, -2.314752826352065E+00, -5.842214257858602E-01,  4.572293913619992E-01,  5.128306297543388E-03, -1.044599761051375E-02, -7.419806046508737E-04,
2460085.500000000, A.D. 2023-May-21 00:00:00.0000,      69.185177, -2.288510053475056E+00, -6.362942349129617E-01,  4.534002156105889E-01,  5.368966439806507E-03, -1.038205053500898E-02, -7.897462546562881E-04,
2460090.500000000, A.D. 2023-May-26 00:00:00.0000,      69.185075, -2.261061660416557E+00, -6.880310514304233E-01,  4.493313861512953E-01,  5.610527165320897E-03, -1.031157570518675E-02, -8.378374362804689E-04,
2460095.500000000, A.D. 2023-May-31 00:00:00.0000,      69.184964, -2.232403560880101E+00, -7.393988655185605E-01,  4.450213467868607E-01,  5.852820107892630E-03, -1.023442509678131E-02, -8.862252254435930E-04,
2460100.500000000, A.D. 2023-Jun-05 00:00:00.0000,      69.184845, -2.202532536387271E+00, -7.903639336764097E-01,  4.404686910893069E-01,  6.095666464807498E-03, -1.015045336610574E-02, -9.348786281158146E-04,
2460105.500000000, A.D. 2023-Jun-10 00:00:00.0000,      69.184721, -2.171446289062327E+00, -8.408917937299027E-01,  4.356721729019513E-01,  6.338876760808599E-03, -1.005951849956356E-02, -9.837645201706635E-04,
2460110.500000000, A.D. 2023-Jun-15 00:00:00.0000,      69.184593, -2.139143495521796E+00, -8.909472831988912E-01,  4.306307171302502E-01,  6.582250642811470E-03, -9.961482507707922E-03, -1.032847592105842E-03,
2460115.500000000, A.D. 2023-Jun-20 00:00:00.0000,      69.184461, -2.105623861704982E+00, -9.404945612455192E-01,  4.253434307954815E-01,  6.825576709546104E-03, -9.856212163615683E-03, -1.082090299311171E-03,
2460120.500000000, A.D. 2023-Jun-25 00:00:00.0000,      69.184326, -2.070888178459170E+00, -9.894971344232885E-01,  4.198096143214147E-01,  7.068632380898614E-03, -9.743579784563099E-03, -1.131452818778203E-03,
2460125.500000000, A.D. 2023-Jun-30 00:00:00.0000,      69.184188, -2.034938377667717E+00, -1.037917886439580E+00,  4.140287730190365E-01,  7.311183812358107E-03, -9.623464055450762E-03, -1.180893013368002E-03,
2460130.500000000, A.D. 2023-Jul-05 00:00:00.0000,      69.184046, -1.997777588681178E+00, -1.085719112135994E+00,  4.080006287284812E-01,  7.552985860302327E-03, -9.495750892193938E-03, -1.230366404862199E-03,
2460135.500000000, A.D. 2023-Jul-10 00:00:00.0000,      69.183905, -1.959410194783421E+00, -1.132862555881327E+00,  4.017251315713857E-01,  7.793782103606887E-03, -9.360334342976489E-03, -1.279826156920058E-03,
